{
  "norad_id": 59417,
  "name": "STARLINK-31401",
  "history": [
    {
      "epoch": "2026-03-28T21:36:21.353760",
      "apogee_km": 484.30036495861805,
      "perigee_km": 481.7843704844745,
      "latitude_deg": -21.111690026750086,
      "longitude_deg": -151.87627360015176,
      "semi_major_axis_km": 6861.179367721546,
      "eccentricity": 0.00018335,
      "inclination_deg": 43.0083,
      "raan_deg": 300.7673,
      "arg_perigee_deg": 270.5615,
      "mean_anomaly_deg": 89.5027,
      "mean_motion_rev_day": 15.27582247
    }
  ]
}